[{"OBJECT_NAME":"STARLINK-2114","OBJECT_ID":"2021-005AW","EPOCH":"2026-03-09T22:00:01.999584","MEAN_MOTION":15.6571157,"ECCENTRICITY":0.00014457,"INCLINATION":53.0461,"RA_OF_ASC_NODE":342.7454,"ARG_OF_PERICENTER":133.5474,"MEAN_ANOMALY":327.8029,"EPHEMERIS_TYPE":0,"CLASSIFICATION_TYPE":"U","NORAD_CAT_ID":47393,"ELEMENT_SET_NO":999,"REV_AT_EPOCH":586,"BSTAR":0.00048635104,"MEAN_MOTION_DOT":0.00049811,"MEAN_MOTION_DDOT":0},{"OBJECT_NAME":"CUTE","OBJECT_ID":"2021-088D","EPOCH":"2026-03-09T17:50:19.960512","MEAN_MOTION":15.66742985,"ECCENTRICITY":0.00029853,"INCLINATION":97.4217,"RA_OF_ASC_NODE":160.9488,"ARG_OF_PERICENTER":311.8263,"MEAN_ANOMALY":48.2742,"EPHEMERIS_TYPE":0,"CLASSIFICATION_TYPE":"U","NORAD_CAT_ID":49263,"ELEMENT_SET_NO":999,"REV_AT_EPOCH":24688,"BSTAR":0.00040035003,"MEAN_MOTION_DOT":0.00042102,"MEAN_MOTION_DDOT":0}]
